STARLINK-34217          
1 64488U 25133S   25183.50002315 -.01205975  00000+0 -58537-2 0  9999
2 64488  53.1559 211.1971 0000971  66.1268 191.6984 15.84264591  2597
STARLINK-34307          
1 64489U 25133T   25183.50002315 -.01206458  00000+0 -58541-2 0  9992
2 64489  53.1556 211.1925 0000862  67.5840 192.4559 15.84273596  2686
STARLINK-34505          
1 64490U 25133U   25183.50002315 -.01220196  00000+0 -59249-2 0  9995
2 64490  53.1557 211.1876 0001042  72.5244 189.8072 15.84286530  2681
STARLINK-34530          
1 64491U 25133V   25183.50002315 -.01227760  00000+0 -59640-2 0  9995
2 64491  53.1556 211.1827 0001134  69.9733 194.7311 15.84293463  2686
STARLINK-34522          
1 64492U 25133W   25183.50002315 -.01235502  00000+0 -60048-2 0  9993
2 64492  53.1555 211.1777 0001157  72.7175 194.4191 15.84298735  2700
STARLINK-34462          
1 64493U 25133X   25183.50002315 -.01244025  00000+0 -60512-2 0  9990
2 64493  53.1557 211.1727 0001024  70.5372 199.0381 15.84301401  2703
STARLINK-34226          
1 64494U 25133Y   25183.50002315 -.01250901  00000+0 -60833-2 0  9997
2 64494  53.1553 211.1684 0000974  65.3007 206.3006 15.84321244  2547
STARLINK-34364          
1 64495U 25133Z   25183.50002315 -.01267391  00000+0 -61722-2 0  9997
2 64495  53.1556 211.1583 0001101  70.0007 206.4866 15.84326132  2709
STARLINK-34268          
1 64496U 25133AA  25183.50002315 -.01260187  00000+0 -61329-2 0  9997
2 64496  53.1556 211.1634 0001098  71.1622 202.8748 15.84324877  2700
STARLINK-34363          
1 64497U 25133AB  25183.50002315 -.01212956  00000+0 -58952-2 0  9997
2 64497  53.1556 211.1529 0000979  82.7897 196.2785 15.84252588  2709
STARLINK-34427          
1 64498U 25133AC  25183.50002315 -.01291933  00000+0 -63066-2 0  9992
2 64498  53.1555 211.1480 0001095  71.5453 209.9952 15.84330360  2702
KUIPER-00039            
1 64500U 25134A   25183.50002315 -.00006161  00000+0 -16990-3 0  9998
2 64500  51.8682 287.4033 0008616 145.4752 193.1054 15.34558499  2179
KUIPER-00040            
1 64501U 25134B   25182.91667824 -.00021433  00000+0 -63741-3 0  9990
2 64501  51.8654 290.2686 0011514 155.2639 170.7478 15.33671857  1408
KUIPER-00041            
1 64502U 25134C   25183.50002315 -.00015757  00000+0 -45895-3 0  9997
2 64502  51.8683 287.4389 0010449 153.6846 167.3708 15.34108036  2164
KUIPER-00042            
1 64503U 25134D   25183.50002315 -.00015651  00000+0 -45325-3 0  9999
2 64503  51.8655 287.4256 0009902 148.1856 179.0993 15.34288504  2164
KUIPER-00043            
1 64504U 25134E   25183.16668981  .00063310  00000+0  18591-2 0  9996
2 64504  51.8692 289.0126 0009311 140.7024 152.3547 15.34503238  2500
KUIPER-00044            
1 64505U 25134F   25183.50002315 -.00015135  00000+0 -44393-3 0  9992
2 64505  51.8641 287.4506 0011764 150.6663 164.1894 15.33838694  2167
KUIPER-00046            
1 64506U 25134G   25183.50002315 -.00015141  00000+0 -43921-3 0  9996
2 64506  51.8669 287.4319 0010502 146.1221 178.2167 15.34200468  2161
KUIPER-00047            
1 64507U 25134H   25183.50002315 -.00015144  00000+0 -44312-3 0  9995
2 64507  51.8628 287.4498 0011110 155.6949 159.4099 15.33923639  2169
KUIPER-00048            
1 64508U 25134J   25183.50002315 -.00018383  00000+0 -50994-3 0  9997
2 64508  51.8775 287.3194 0003692 131.3480 245.5933 15.35805795  2171
KUIPER-00049            
1 64509U 25134K   25183.50002315 -.00017420  00000+0 -49663-3 0  9990
2 64509  51.8717 287.3854 0007701 141.0699 206.1401 15.34886904  2618
KUIPER-00050            
1 64510U 25134L   25183.50002315 -.00015750  00000+0 -44995-3 0  9999
2 64510  51.8727 287.3924 0008207 139.8209 203.7013 15.34735735  2171
KUIPER-00051            
1 64511U 25134M   25183.50002315 -.00018111  00000+0 -51103-3 0  9993
2 64511  51.8739 287.3605 0006169 135.2224 223.7861 15.35250172  2556
KUIPER-00052            
1 64512U 25134N   25183.50002315 -.00018311  00000+0 -51432-3 0  9991
2 64512  51.8765 287.3455 0005011 137.2552 227.9133 15.35407829  2179
KUIPER-00053            
1 64513U 25134P   25183.50002315 -.00018943  00000+0 -52071-3 0  9993
2 64513  51.8782 287.2931 0002970 118.4418 270.0763 15.36112687  2174
KUIPER-00054            
1 64514U 25134Q   25183.50002315 -.00018359  00000+0 -50789-3 0  9999
2 64514  51.8769 287.3151 0003535 119.9007 259.8171 15.35889387  2572
KUIPER-00055            
1 64515U 25134R   25182.91667824 -.00012794  00000+0 -34266-3 0  9995
2 64515  51.8780 290.0787 0000996  91.2659 324.1084 15.36586844  2409
KUIPER-00056            
1 64516U 25134S   25183.50002315 -.00018020  00000+0 -50161-3 0  9990
2 64516  51.8748 287.3320 0004211 133.8556 238.9470 15.35680799  2177
KUIPER-00057            
1 64517U 25134T   25183.50002315 -.00013024  00000+0 -36877-3 0  9998
2 64517  51.8705 287.3773 0006604 137.5774 213.7378 15.34854791  2288
KUIPER-00058            
1 64518U 25134U   25183.50002315 -.00018056  00000+0 -50799-3 0  9998
2 64518  51.8729 287.3551 0005559 138.9469 223.0475 15.35344008  2179
KUIPER-00059            
1 64519U 25134V   25183.50002315 -.00018921  00000+0 -51513-3 0  9995
2 64519  51.8785 287.2713 0001637  91.9331 305.7507 15.36414142  2161
KUIPER-00060            
1 64520U 25134W   25183.50002315 -.00019521  00000+0 -53531-3 0  9996
2 64520  51.8779 287.2887 0002840 104.3967 287.1085 15.36208842  2172
KUIPER-00061            
1 64521U 25134X   25183.50002315 -.00017686  00000+0 -50005-3 0  9990
2 64521  51.8748 287.3635 0006231 135.5836 221.5856 15.35168538  2174
KUIPER-00062            
1 64522U 25134Y   25183.16668981  .00067551  00000+0  19229-2 0  9996
2 64522  51.8753 288.9421 0005215 133.0907 193.3738 15.35477954  2118
KUIPER-00063            
1 64523U 25134Z   25183.50002315 -.00019219  00000+0 -53060-3 0  9990
2 64523  51.8763 287.3079 0003155 116.7372 267.1078 15.35988389  2179
KUIPER-00064            
1 64524U 25134AA  25183.50002315 -.00019716  00000+0 -53542-3 0  9998
2 64524  51.8785 287.2653 0001720  83.1372 318.4578 15.36520053  2473
KUIPER-00065            
1 64525U 25134AB  25183.16668981  .00063263  00000+0  18634-2 0  9994
2 64525  51.8705 289.0182 0009433 145.2897 144.9632 15.34406151  2365
KUIPER-00066            
1 64526U 25134AC  25183.16668981  .00066069  00000+0  18358-2 0  9995
2 64526  51.8772 288.8927 0001976 108.1625 241.1625 15.36252868  2116
2025-131D               
1 64527U 25131D   25182.83838576 -.00000348  00000+0  00000+0 0  9996
2 64527   1.0562 280.5245 3677115 174.0578 232.1891  1.00270298   104
AXIOM-4 (AX-4)          
1 64593U 25136A   25182.83204607  .00005749  00000+0  10743-3 0  9994
2 64593  51.6347 234.4916 0002352 318.4634  41.6176 15.50322094   663
STARLINK-34280          
1 64594U 25137A   25183.50002315 -.00777933  19648-3 -21717-2 0  9990
2 64594  53.1563  75.8555 0000569  90.9413 162.8027 15.92949534  2171
STARLINK-34517          
1 64595U 25137B   25182.75001157 -.00804521  21126-3 -21048-2 0  9995
2 64595  53.1565  79.6829 0000944 116.3703 153.3395 15.94181260  2058
STARLINK-34510          
1 64596U 25137C   25183.50002315 -.00786162  20051-3 -21782-2 0  9998
2 64596  53.1564  75.8483 0000570 107.6208 149.6297 15.93094618  2171
STARLINK-34486          
1 64597U 25137D   25183.50002315 -.00795162  20483-3 -21925-2 0  9997
2 64597  53.1564  75.8437 0000663 121.7043 137.6549 15.93188348  2179
STARLINK-34463          
1 64598U 25137E   25183.50002315 -.00813453  21358-3 -22308-2 0  9990
2 64598  53.1564  75.8387 0001271  98.6367 163.0550 15.93294049  2172
STARLINK-34294          
1 64599U 25137F   25182.75001157 -.00836655  22761-3 -21412-2 0  9993
2 64599  53.1565  79.6672 0001090 126.0480 151.1921 15.94599873  2055
STARLINK-34504          
1 64600U 25137G   25182.75001157 -.00839742  22933-3 -21387-2 0  9998
2 64600  53.1565  79.6634 0000960 117.4216 161.5613 15.94691285  2055
STARLINK-34508          
1 64601U 25137H   25183.50002315 -.00825470  21984-3 -22339-2 0  9996
2 64601  53.1563  75.8267 0000677 122.9433 144.6689 15.93549010  2176
STARLINK-34435          
1 64602U 25137J   25182.75001157 -.00855494  23763-3 -21549-2 0  9994
2 64602  53.1565  79.6556 0000880 116.6253 166.1139 15.94900288  2053
STARLINK-34475          
1 64603U 25137K   25183.50002315 -.00845715  23006-3 -22664-2 0  9990
2 64603  53.1563  75.8176 0001167 119.6685 152.2411 15.93737178  2176
STARLINK-34488          
1 64604U 25137L   25183.50002315 -.00846295  23053-3 -22582-2 0  9996
2 64604  53.1564  75.8134 0000654 119.1865 154.6471 15.93819442  2174
STARLINK-34516          
1 64605U 25137M   25183.50002315 -.00861794  23844-3 -22868-2 0  9993
2 64605  53.1564  75.8085 0000819 115.0269 161.1506 15.93927146  2270
STARLINK-34073          
1 64606U 25137N   25183.50002315 -.00871205  24339-3 -22998-2 0  9996
2 64606  53.1563  75.8039 0001059 120.2357 158.1824 15.94026311  2063
STARLINK-34532          
1 64607U 25137P   25183.50002315 -.00871604  24376-3 -22922-2 0  9998
2 64607  53.1564  75.8001 0001019 101.5894 178.6110 15.94097290  2179
STARLINK-34519          
1 64608U 25137Q   25183.50002315 -.00874855  24561-3 -22905-2 0  9997
2 64608  53.1565  75.7960 0000958  95.4925 186.6910 15.94181880  2177
STARLINK-34513          
1 64609U 25137R   25183.50002315 -.00874310  24555-3 -22785-2 0  9993
2 64609  53.1563  75.7917 0000678 118.9783 165.2725 15.94269046  2279
STARLINK-34569          
1 64610U 25137S   25183.50002315 -.00883079  25021-3 -22916-2 0  9992
2 64610  53.1563  75.7875 0000958 112.3045 173.8395 15.94349954  2178
STARLINK-34494          
1 64611U 25137T   25183.50002315 -.00882428  25013-3 -22779-2 0  9998
2 64611  53.1564  75.7826 0000606 109.4428 179.0012 15.94448797  2177
STARLINK-34521          
1 64612U 25137U   25183.50002315 -.00899632  25921-3 -23120-2 0  9993
2 64612  53.1564  75.7786 0000952  95.6478 194.7261 15.94534912  2173
